#cP2018 12 23  0  0  0.00000000      96 d     IGS14 FIT  SIO                    
## 2033      0.00000000   900.00000000 58475 0.0000000000000                    
+   31   G01G02G03G05G06G07G08G09G10G11G12G13G14G15G16G17G18                    
+        G19G20G21G22G23G24G25G26G27G28G29G30G31G32  0  0  0                    
+          0  0  0  0  0  0  0  0  0  0  0  0  0  0  0  0  0                    
+          0  0  0  0  0  0  0  0  0  0  0  0  0  0  0  0  0                    
+          0  0  0  0  0  0  0  0  0  0  0  0  0  0  0  0  0                    
++         6  5  5  5  5  4  5  5  4  5  5  5  5  4  5  5  5                    
++         5  6  4  5  5  5  5  6  6  5  5  4  5  5  0  0  0                    
++         0  0  0  0  0  0  0  0  0  0  0  0  0  0  0  0  0                    
++         0  0  0  0  0  0  0  0  0  0  0  0  0  0  0  0  0                    
++         0  0  0  0  0  0  0  0  0  0  0  0  0  0  0  0  0                    
%c G  cc GPS ccc cccc cccc cccc cccc ccccc ccccc ccccc ccccc                    
%c cc cc ccc ccc cccc cccc cccc cccc ccccc ccccc ccccc ccccc                    
%f  1.2500000  1.025000000  0.00000000000  0.000000000000000                    
%f  1.2500000  1.025000000  0.00000000000  0.000000000000000                    
%i    0    0    0    0      0      0      0      0         0                    
%i    0    0    0    0      0      0      0      0         0                    
/*                                                                              
/*                                                                              
/*                                                                              
/* PCV:IGS14      OL/AL:FES2004  NONE     YN ORB:CoN CLK:CoN                    
*  2018 12 23  1 30  0.00000000                                                 
PG01   8388.129879 -19341.472277 -16133.394287 999999.999999                    
PG02 -21621.944622  14813.086261  -2942.769569 999999.999999                    
PG03  -1919.402728 -16680.579366 -20634.099235 999999.999999                    
PG05 -18393.836362   6254.738024  18076.372914 999999.999999                    
PG06 -21817.775453   3334.112245 -14755.163927 999999.999999                    
PG07  -6982.187283 -13829.742367  21787.010547 999999.999999                    
PG08   7003.022338 -21637.167189  13621.856024 999999.999999                    
PG09  -7981.201667 -24213.001575   7390.495684 999999.999999                    
PG10  24275.418721  11029.953482    102.846530 999999.999999                    
PG11   7469.957143 -24707.812434  -7268.552296 999999.999999                    
PG12  -2143.370697  15296.907127 -21827.446672 999999.999999                    
PG13 -12526.660996  15249.380340  17643.158461 999999.999999                    
PG14  15085.241950   1547.224679 -21511.786777 999999.999999                    
PG15  -3632.803180  23744.251854  10637.525819 999999.999999                    
PG16  18853.046099  -3439.288825  18412.955486 999999.999999                    
PG17 -13270.800506 -12272.332517 -19091.472319 999999.999999                    
PG18  15980.125142 -19757.143982  -7935.749076 999999.999999                    
PG19 -14880.238500  -1325.658108 -22247.429340 999999.999999                    
PG20  20300.380876  14136.797442   9721.874350 999999.999999                    
PG21  10385.114130  12043.328220  22078.793397 999999.999999                    
PG22   6452.300441 -14491.866600 -21070.011843 999999.999999                    
PG23  -1629.481370 -26192.582796  -1878.592912 999999.999999                    
PG24 -11882.878354  20444.656205 -11906.927902 999999.999999                    
PG25  10068.178615  17672.127713 -17405.782830 999999.999999                    
PG26  24238.422322   1969.013345  10868.254764 999999.999999                    
PG27  12137.000047 -12620.095944  19800.302040 999999.999999                    
PG28 -22250.786544 -14324.870708   2269.292478 999999.999999                    
PG29   4176.432049  25749.117052   4976.949266 999999.999999                    
PG30 -17061.732331  -5880.488895  19556.884368 999999.999999                    
PG31  23205.592889  -5320.971591 -12209.127365 999999.999999                    
PG32  15038.389840   9265.532562 -19827.754475 999999.999999                    
*  2018 12 23  1 45  0.00000000                                                 
PG01   9852.810779 -20235.058680 -14024.772390 999999.999999                    
PG02 -21386.194738  14219.979980  -5737.137988 999999.999999                    
PG03    315.291596 -15818.713952 -21381.309229 999999.999999                    
PG05 -20189.420571   5381.505324  16391.124730 999999.999999                    
PG06 -20479.395177   2112.665861 -16756.098753 999999.999999                    
PG07  -5001.302117 -15227.025912  21350.602557 999999.999999                    
PG08   7419.615329 -20002.061273  15757.442465 999999.999999                    
PG09  -7812.839032 -24940.681618   4664.809913 999999.999999                    
PG10  24029.262115  11184.854022   2943.012883 999999.999999                    
PG11   8080.666709 -25091.800910  -4646.171022 999999.999999                    
PG12  -4364.133106  14217.525146 -22210.457570 999999.999999                    
PG13 -12674.676623  13122.780648  19173.568870 999999.999999                    
PG14  15185.106159   4048.582967 -21133.896807 999999.999999                    
PG15  -4253.003936  22442.296992  12964.872710 999999.999999                    
PG16  20600.167257  -2427.340483  16671.482284 999999.999999                    
PG17 -13329.930017 -14436.594575 -17514.008137 999999.999999                    
PG18  16690.481898 -20002.154405  -5221.865003 999999.999999                    
PG19 -14931.509050  -3784.446745 -21914.396914 999999.999999                    
PG20  19002.888814  14066.971935  12109.978652 999999.999999                    
PG21   8591.519431  13569.120131  21967.327156 999999.999999                    
PG22   8765.842131 -13666.010722 -20783.660481 999999.999999                    
PG23  -1234.713974 -25831.771004  -4688.529707 999999.999999                    
PG24 -13001.021710  21006.963875  -9452.257240 999999.999999                    
PG25   8146.661709  16984.172751 -19016.243550 999999.999999                    
PG26  25174.042092   2586.380813   8330.390781 999999.999999                    
PG27  12537.190444 -10305.482012  20881.758164 999999.999999                    
PG28 -21850.132444 -14327.345277   5134.731428 999999.999999                    
PG29   4019.771021  26167.236971   2111.515442 999999.999999                    
PG30 -15235.663077  -7272.181925  20556.283449 999999.999999                    
PG31  22079.590553  -4297.240978 -14449.816384 999999.999999                    
PG32  15220.039185  11460.419571 -18509.424118 999999.999999                    
*  2018 12 23  2  0  0.00000000                                                 
PG01  11077.511711 -21042.141799 -11673.670048 999999.999999                    
PG02 -20956.907940  13392.442588  -8429.935562 999999.999999                    
PG03   2652.829342 -15054.063084 -21762.207740 999999.999999                    
PG05 -21828.390185   4664.380522  14423.669971 999999.999999                    
PG06 -19049.975341    681.941422 -18468.188270 999999.999999                    
PG07  -3144.688083 -16683.680451  20552.424417 999999.999999                    
PG08   7967.608909 -18170.277252  17620.706200 999999.999999                    
PG09  -7619.257390 -25369.099742   1858.727915 999999.999999                    
PG10  23491.763813  11248.946127   5733.138370 999999.999999                    
PG11   8555.563854 -25232.622924  -1945.698139 999999.999999                    
PG12  -6664.027989  13256.121565 -22218.520128 999999.999999                    
PG13 -12945.563500  10851.681396  20370.540303 999999.999999                    
PG14  15405.844989   6474.773762 -20383.046055 999999.999999                    
PG15  -5000.885392  20926.933180  15061.496816 999999.999999                    
PG16  22203.656616  -1604.446690  14644.760594 999999.999999                    
PG17 -13481.318118 -16393.622962 -15626.902555 999999.999999                    
PG18  17164.938202 -20066.763110  -2418.239767 999999.999999                    
PG19 -15115.312210  -6180.487100 -21213.744205 999999.999999                    
PG20  17451.039348  14002.632481  14289.744941 999999.999999                    
PG21   6902.395161  15164.782589  21504.326875 999999.999999                    
PG22  11063.434801 -12961.544058 -20132.058205 999999.999999                    
PG23   -756.773459 -25180.087366  -7415.170378 999999.999999                    
PG24 -13883.863569  21424.685374  -6832.912552 999999.999999                    
PG25   6036.049212  16348.372653 -20306.962146 999999.999999                    
PG26  25860.135085   3064.131750   5650.469296 999999.999999                    
PG27  13081.629627  -7917.440825  21599.281009 999999.999999                    
PG28 -21162.761042 -14217.978943   7912.526928 999999.999999                    
PG29   3845.258500  26268.660550   -790.271915 999999.999999                    
PG30 -13406.425985  -8810.666601  21203.552939 999999.999999                    
PG31  20823.956842  -3062.885335 -16446.651455 999999.999999                    
PG32  15481.881857  13478.078267 -16872.677077 999999.999999                    
EOF
